{"type": "FeatureCollection", "features": [ {"type": "Feature", "properties": {"norad_id": 32343, "name": "FENGYUN 1C DEB", "group": "fengyun-1c-debris", "lat": 58.930723656384714, "lon": -36.18114209279794, "alt_km": 753.2594134980709, "timestamp": "2025-12-17T17:50:19.537143+00:00", "meta": {"OBJECT_NAME": "FENGYUN 1C DEB", "OBJECT_ID": "1999-025CYL", "EPOCH": "2025-12-13T05:18:56.833632", "MEAN_MOTION": 14.19848796, "ECCENTRICITY": 0.01521973, "INCLINATION": 98.6084, "RA_OF_ASC_NODE": 333.9812, "ARG_OF_PERICENTER": 126.2805, "MEAN_ANOMALY": 235.2541, "EPHEMERIS_TYPE": 0, "CLASSIFICATION_TYPE": "U", "NORAD_CAT_ID": 32343, "ELEMENT_SET_NO": 999, "REV_AT_EPOCH": 64720, "BSTAR": 0.00041342117, "MEAN_MOTION_DOT": 9.43e-06, "MEAN_MOTION_DDOT": 0}, "tle": {"line1": "1 32343U 99025CYL 25347.22149113  .00000943  00000+0  41342-3 0  9996", "line2": "2 32343  98.6084 333.9812 0152197 126.2805 235.2541 14.19848796647208"}}, "geometry": {"type": "Point", "coordinates": [-36.18114209279794, 58.930723656384714]}}, {"type": "Feature", "properties": {"norad_id": 32350, "name": "FENGYUN 1C DEB", "group": "fengyun-1c-debris", "lat": -22.81133929934545, "lon": -147.08997536575632, "alt_km": 685.6097243244476, "timestamp": "2025-12-17T17:50:19.537155+00:00", "meta": {"OBJECT_NAME": "FENGYUN 1C DEB", "OBJECT_ID": "1999-025CYT", "EPOCH": "2025-12-14T09:31:41.023776", "MEAN_MOTION": 14.52585967, "ECCENTRICITY": 0.02665518, "INCLINATION": 98.2297, "RA_OF_ASC_NODE": 33.1134, "ARG_OF_PERICENTER": 293.5046, "MEAN_ANOMALY": 63.8346, "EPHEMERIS_TYPE": 0, "CLASSIFICATION_TYPE": "U", "NORAD_CAT_ID": 32350, "ELEMENT_SET_NO": 999, "REV_AT_EPOCH": 97551, "BSTAR": 0.00074129025, "MEAN_MOTION_DOT": 4.788e-05, "MEAN_MOTION_DDOT": 0}, "tle": {"line1": "1 32350U 99025CYT 25348.39700259  .00004788  00000+0  74129-3 0  9997", "line2": "2 32350  98.2297  33.1134 0266551 293.5046  63.8346 14.52585967975510"}}, "geometry": {"type": "Point", "coordinates": [-147.08997536575632, -22.81133929934545]}}, {"type": "Feature", "properties": {"norad_id": 32352, "name": "FENGYUN 1C DEB", "group": "fengyun-1c-debris", "lat": 71.580058220504, "lon": 119.52967150146267, "alt_km": 690.1955818769966, "timestamp": "2025-12-17T17:50:19.537165+00:00", "meta": {"OBJECT_NAME": "FENGYUN 1C DEB", "OBJECT_ID": "1999-025CYV", "EPOCH": "2025-12-12T12:23:45.025440", "MEAN_MOTION": 14.41420955, "ECCENTRICITY": 0.01220074, "INCLINATION": 98.7776, "RA_OF_ASC_NODE": 266.5198, "ARG_OF_PERICENTER": 171.7067, "MEAN_ANOMALY": 188.6176, "EPHEMERIS_TYPE": 0, "CLASSIFICATION_TYPE": "U", "NORAD_CAT_ID": 32352, "ELEMENT_SET_NO": 999, "REV_AT_EPOCH": 65266, "BSTAR": 0.00034517758, "MEAN_MOTION_DOT": 1.172e-05, "MEAN_MOTION_DDOT": 0}, "tle": {"line1": "1 32352U 99025CYV 25346.51649335  .00001172  00000+0  34518-3 0  9990", "line2": "2 32352  98.7776 266.5198 0122007 171.7067 188.6176 14.41420955652666"}}, "geometry": {"type": "Point", "coordinates": [119.52967150146267, 71.580058220504]}}, {"type": "Feature", "properties": {"norad_id": 32353, "name": "FENGYUN 1C DEB", "group": "fengyun-1c-debris", "lat": -36.24199043180359, "lon": 174.738848525114, "alt_km": 953.7070858210145, "timestamp": "2025-12-17T17:50:19.537176+00:00", "meta": {"OBJECT_NAME": "FENGYUN 1C DEB", "OBJECT_ID": "1999-025CYW", "EPOCH": "2025-12-14T18:10:27.215616", "MEAN_MOTION": 14.03836024, "ECCENTRICITY": 0.01250888, "INCLINATION": 98.9217, "RA_OF_ASC_NODE": 165.1959, "ARG_OF_PERICENTER": 193.6238, "MEAN_ANOMALY": 166.1542, "EPHEMERIS_TYPE": 0, "CLASSIFICATION_TYPE": "U", "NORAD_CAT_ID": 32353, "ELEMENT_SET_NO": 999, "REV_AT_EPOCH": 63222, "BSTAR": 0.0024513199, "MEAN_MOTION_DOT": 4.1e-05, "MEAN_MOTION_DDOT": 0}, "tle": {"line1": "1 32353U 99025CYW 25348.75725944  .00004100  00000+0  24513-2 0  9997", "line2": "2 32353  98.9217 165.1959 0125088 193.6238 166.1542 14.03836024632227"}}, "geometry": {"type": "Point", "coordinates": [174.738848525114, -36.24199043180359]}}, {"type": "Feature", "properties": {"norad_id": 32355, "name": "FENGYUN 1C DEB", "group": "fengyun-1c-debris", "lat": -46.39933872622695, "lon": -66.50479502359917, "alt_km": 451.56618053362854, "timestamp": "2025-12-17T17:50:19.537186+00:00", "meta": {"OBJECT_NAME": "FENGYUN 1C DEB", "OBJECT_ID": "1999-025CYY", "EPOCH": "2025-12-15T13:52:23.647008", "MEAN_MOTION": 15.41566908, "ECCENTRICITY": 0.00300422, "INCLINATION": 100.3422, "RA_OF_ASC_NODE": 279.3759, "ARG_OF_PERICENTER": 75.3409, "MEAN_ANOMALY": 101.6774, "EPHEMERIS_TYPE": 0, "CLASSIFICATION_TYPE": "U", "NORAD_CAT_ID": 32355, "ELEMENT_SET_NO": 999, "REV_AT_EPOCH": 65034, "BSTAR": 0.009370241, "MEAN_MOTION_DOT": 0.00421206, "MEAN_MOTION_DDOT": 0}, "tle": {"line1": "1 32355U 99025CYY 25349.57805147  .00421206  00000+0  93702-2 0  9990", "line2": "2 32355 100.3422 279.3759 0030042  75.3409 101.6774 15.41566908650340"}}, "geometry": {"type": "Point", "coordinates": [-66.50479502359917, -46.39933872622695]}}, {"type": "Feature", "properties": {"norad_id": 32356, "name": "FENGYUN 1C DEB", "group": "fengyun-1c-debris", "lat": 28.97338727459324, "lon": 42.88118130222432, "alt_km": 956.2081534821236, "timestamp": "2025-12-17T17:50:19.537196+00:00", "meta": {"OBJECT_NAME": "FENGYUN 1C DEB", "OBJECT_ID": "1999-025CYZ", "EPOCH": "2025-12-17T01:43:53.880096", "MEAN_MOTION": 14.03411702, "ECCENTRICITY": 0.01256613, "INCLINATION": 102.4959, "RA_OF_ASC_NODE": 214.9096, "ARG_OF_PERICENTER": 5.208, "MEAN_ANOMALY": 355.0349, "EPHEMERIS_TYPE": 0, "CLASSIFICATION_TYPE": "U", "NORAD_CAT_ID": 32356, "ELEMENT_SET_NO": 999, "REV_AT_EPOCH": 68448, "BSTAR": 0.0018802682, "MEAN_MOTION_DOT": 3.082e-05, "MEAN_MOTION_DDOT": 0}, "tle": {"line1": "1 32356U 99025CYZ 25351.07215139  .00003082  00000+0  18803-2 0  9992", "line2": "2 32356 102.4959 214.9096 0125661   5.2080 355.0349 14.03411702684480"}}, "geometry": {"type": "Point", "coordinates": [42.88118130222432, 28.97338727459324]}}, {"type": "Feature", "properties": {"norad_id": 32357, "name": "FENGYUN 1C DEB", "group": "fengyun-1c-debris", "lat": 69.98287380780073, "lon": 5.3543335996326515, "alt_km": 1057.3068066745373, "timestamp": "2025-12-17T17:50:19.537207+00:00", "meta": {"OBJECT_NAME": "FENGYUN 1C DEB", "OBJECT_ID": "1999-025CZA", "EPOCH": "2025-12-13T21:20:47.666112", "MEAN_MOTION": 13.68708108, "ECCENTRICITY": 0.04907347, "INCLINATION": 98.8577, "RA_OF_ASC_NODE": 27.1403, "ARG_OF_PERICENTER": 184.5127, "MEAN_ANOMALY": 353.61, "EPHEMERIS_TYPE": 0, "CLASSIFICATION_TYPE": "U", "NORAD_CAT_ID": 32357, "ELEMENT_SET_NO": 999, "REV_AT_EPOCH": 66803, "BSTAR": 0.0036548407, "MEAN_MOTION_DOT": 7.308e-05, "MEAN_MOTION_DDOT": 0}, "tle": {"line1": "1 32357U 99025CZA 25347.88944058  .00007308  00000+0  36548-2 0  9997", "line2": "2 32357  98.8577  27.1403 0490734 184.5127 353.6100 13.68708108668031"}}, "geometry": {"type": "Point", "coordinates": [5.3543335996326515, 69.98287380780073]}}, {"type": "Feature", "properties": {"norad_id": 32361, "name": "FENGYUN 1C DEB", "group": "fengyun-1c-debris", "lat": 31.195246909498916, "lon": 45.520805936621954, "alt_km": 687.8502571362997, "timestamp": "2025-12-17T17:50:19.537218+00:00", "meta": {"OBJECT_NAME": "FENGYUN 1C DEB", "OBJECT_ID": "1999-025CZE", "EPOCH": "2025-12-17T02:48:04.154400", "MEAN_MOTION": 14.51109663, "ECCENTRICITY": 0.00456706, "INCLINATION": 98.8528, "RA_OF_ASC_NODE": 50.2768, "ARG_OF_PERICENTER": 31.0407, "MEAN_ANOMALY": 329.347, "EPHEMERIS_TYPE": 0, "CLASSIFICATION_TYPE": "U", "NORAD_CAT_ID": 32361, "ELEMENT_SET_NO": 999, "REV_AT_EPOCH": 96408, "BSTAR": 0.0014854328, "MEAN_MOTION_DOT": 5.922e-05, "MEAN_MOTION_DDOT": 0}, "tle": {"line1": "1 32361U 99025CZE 25351.11671475  .00005922  00000+0  14854-2 0  9999", "line2": "2 32361  98.8528  50.2768 0045670  31.0407 329.3470 14.51109663964083"}}, "geometry": {"type": "Point", "coordinates": [45.520805936621954, 31.195246909498916]}}, {"type": "Feature", "properties": {"norad_id": 32362, "name": "FENGYUN 1C DEB", "group": "fengyun-1c-debris", "lat": -56.85283760007969, "lon": -21.582467076829445, "alt_km": 845.5582856773435, "timestamp": "2025-12-17T17:50:19.537228+00:00", "meta": {"OBJECT_NAME": "FENGYUN 1C DEB", "OBJECT_ID": "1999-025CZF", "EPOCH": "2025-12-17T04:02:39.860160", "MEAN_MOTION": 13.65215674, "ECCENTRICITY": 0.02741019, "INCLINATION": 99.844, "RA_OF_ASC_NODE": 322.4158, "ARG_OF_PERICENTER": 274.1105, "MEAN_ANOMALY": 82.8756, "EPHEMERIS_TYPE": 0, "CLASSIFICATION_TYPE": "U", "NORAD_CAT_ID": 32362, "ELEMENT_SET_NO": 999, "REV_AT_EPOCH": 91190, "BSTAR": 0.0022615995, "MEAN_MOTION_DOT": 2.325e-05, "MEAN_MOTION_DDOT": 0}, "tle": {"line1": "1 32362U 99025CZF 25351.16851690  .00002325  00000+0  22616-2 0  9993", "line2": "2 32362  99.8440 322.4158 0274101 274.1105  82.8756 13.65215674911908"}}, "geometry": {"type": "Point", "coordinates": [-21.582467076829445, -56.85283760007969]}}, {"type": "Feature", "properties": {"norad_id": 32363, "name": "FENGYUN 1C DEB", "group": "fengyun-1c-debris", "lat": 80.61787062679271, "lon": -111.99895528395278, "alt_km": 379.17647016441515, "timestamp": "2025-12-17T17:50:19.537239+00:00", "meta": {"OBJECT_NAME": "FENGYUN 1C DEB", "OBJECT_ID": "1999-025CZG", "EPOCH": "2025-12-17T08:09:57.409920", "MEAN_MOTION": 15.48534366, "ECCENTRICITY": 0.00638192, "INCLINATION": 98.3303, "RA_OF_ASC_NODE": 310.0138, "ARG_OF_PERICENTER": 125.2276, "MEAN_ANOMALY": 235.4969, "EPHEMERIS_TYPE": 0, "CLASSIFICATION_TYPE": "U", "NORAD_CAT_ID": 32363, "ELEMENT_SET_NO": 999, "REV_AT_EPOCH": 96879, "BSTAR": 0.0013930297, "MEAN_MOTION_DOT": 0.00081044, "MEAN_MOTION_DDOT": 0}, "tle": {"line1": "1 32363U 99025CZG 25351.34024780  .00081044  00000+0  13930-2 0  9990", "line2": "2 32363  98.3303 310.0138 0063819 125.2276 235.4969 15.48534366968795"}}, "geometry": {"type": "Point", "coordinates": [-111.99895528395278, 80.61787062679271]}}]}